[{"OBJECT_NAME":"KUIPER-00124","OBJECT_ID":"2025-228G","EPOCH":"2026-03-02T14:38:31.280064","MEAN_MOTION":14.79948587,"ECCENTRICITY":8.12e-5,"INCLINATION":51.9004,"RA_OF_ASC_NODE":26.8864,"ARG_OF_PERICENTER":101.1266,"MEAN_ANOMALY":258.9788,"EPHEMERIS_TYPE":0,"CLASSIFICATION_TYPE":"U","NORAD_CAT_ID":65953,"ELEMENT_SET_NO":999,"REV_AT_EPOCH":2225,"BSTAR":0.0004783,"MEAN_MOTION_DOT":3.428e-5,"MEAN_MOTION_DDOT":0},{"OBJECT_NAME":"KUIPER-00125","OBJECT_ID":"2025-228H","EPOCH":"2026-03-02T13:24:33.988608","MEAN_MOTION":14.79902872,"ECCENTRICITY":9.85e-5,"INCLINATION":51.9016,"RA_OF_ASC_NODE":12.1366,"ARG_OF_PERICENTER":109.0192,"MEAN_ANOMALY":251.0877,"EPHEMERIS_TYPE":0,"CLASSIFICATION_TYPE":"U","NORAD_CAT_ID":65954,"ELEMENT_SET_NO":999,"REV_AT_EPOCH":2245,"BSTAR":0.00088217,"MEAN_MOTION_DOT":6.506e-5,"MEAN_MOTION_DDOT":0},{"OBJECT_NAME":"KUIPER-00126","OBJECT_ID":"2025-228J","EPOCH":"2026-03-02T15:19:23.307744","MEAN_MOTION":14.79935391,"ECCENTRICITY":0.0001069,"INCLINATION":51.8977,"RA_OF_ASC_NODE":31.781,"ARG_OF_PERICENTER":105.9292,"MEAN_ANOMALY":254.1788,"EPHEMERIS_TYPE":0,"CLASSIFICATION_TYPE":"U","NORAD_CAT_ID":65955,"ELEMENT_SET_NO":999,"REV_AT_EPOCH":2218,"BSTAR":0.00012813,"MEAN_MOTION_DOT":7.56e-6,"MEAN_MOTION_DDOT":0},{"OBJECT_NAME":"KUIPER-00127","OBJECT_ID":"2025-228K","EPOCH":"2026-03-02T22:02:24.920736","MEAN_MOTION":14.76344499,"ECCENTRICITY":0.00014326,"INCLINATION":51.901,"RA_OF_ASC_NODE":21.8033,"ARG_OF_PERICENTER":169.7928,"MEAN_ANOMALY":190.3062,"EPHEMERIS_TYPE":0,"CLASSIFICATION_TYPE":"U","NORAD_CAT_ID":65956,"ELEMENT_SET_NO":999,"REV_AT_EPOCH":2235,"BSTAR":0.00058185178,"MEAN_MOTION_DOT":3.863e-5,"MEAN_MOTION_DDOT":0},{"OBJECT_NAME":"KUIPER-00128","OBJECT_ID":"2025-228L","EPOCH":"2026-03-02T14:41:57.996384","MEAN_MOTION":14.79826438,"ECCENTRICITY":8.04e-5,"INCLINATION":51.9016,"RA_OF_ASC_NODE":24.4092,"ARG_OF_PERICENTER":97.8207,"MEAN_ANOMALY":262.2847,"EPHEMERIS_TYPE":0,"CLASSIFICATION_TYPE":"U","NORAD_CAT_ID":65957,"ELEMENT_SET_NO":999,"REV_AT_EPOCH":2228,"BSTAR":0.00085966,"MEAN_MOTION_DOT":6.322e-5,"MEAN_MOTION_DDOT":0},{"OBJECT_NAME":"KUIPER-00129","OBJECT_ID":"2025-228M","EPOCH":"2026-03-02T14:01:33.265920","MEAN_MOTION":14.79942142,"ECCENTRICITY":0.0001025,"INCLINATION":51.9004,"RA_OF_ASC_NODE":19.521,"ARG_OF_PERICENTER":83.6115,"MEAN_ANOMALY":276.4964,"EPHEMERIS_TYPE":0,"CLASSIFICATION_TYPE":"U","NORAD_CAT_ID":65958,"ELEMENT_SET_NO":999,"REV_AT_EPOCH":2235,"BSTAR":0.00052271,"MEAN_MOTION_DOT":3.767e-5,"MEAN_MOTION_DDOT":0},{"OBJECT_NAME":"KUIPER-00130","OBJECT_ID":"2025-228N","EPOCH":"2026-03-02T14:46:42.426912","MEAN_MOTION":14.79972952,"ECCENTRICITY":0.000118,"INCLINATION":51.9037,"RA_OF_ASC_NODE":21.8907,"ARG_OF_PERICENTER":90.3045,"MEAN_ANOMALY":269.8052,"EPHEMERIS_TYPE":0,"CLASSIFICATION_TYPE":"U","NORAD_CAT_ID":65959,"ELEMENT_SET_NO":999,"REV_AT_EPOCH":1261,"BSTAR":0.00086025,"MEAN_MOTION_DOT":6.349e-5,"MEAN_MOTION_DDOT":0},{"OBJECT_NAME":"KUIPER-00134","OBJECT_ID":"2025-228P","EPOCH":"2026-03-02T23:03:23.124384","MEAN_MOTION":15.38337733,"ECCENTRICITY":0.00045923,"INCLINATION":51.8771,"RA_OF_ASC_NODE":352.9683,"ARG_OF_PERICENTER":297.0536,"MEAN_ANOMALY":62.9982,"EPHEMERIS_TYPE":0,"CLASSIFICATION_TYPE":"U","NORAD_CAT_ID":65960,"ELEMENT_SET_NO":999,"REV_AT_EPOCH":2275,"BSTAR":0.0012315604,"MEAN_MOTION_DOT":0.00047192,"MEAN_MOTION_DDOT":0},{"OBJECT_NAME":"KUIPER-00135","OBJECT_ID":"2025-228Q","EPOCH":"2026-03-02T07:28:41.170368","MEAN_MOTION":14.79952272,"ECCENTRICITY":0.00010089,"INCLINATION":51.9026,"RA_OF_ASC_NODE":23.2955,"ARG_OF_PERICENTER":66.9891,"MEAN_ANOMALY":293.1177,"EPHEMERIS_TYPE":0,"CLASSIFICATION_TYPE":"U","NORAD_CAT_ID":65961,"ELEMENT_SET_NO":999,"REV_AT_EPOCH":2227,"BSTAR":0.00089228645,"MEAN_MOTION_DOT":6.591e-5,"MEAN_MOTION_DDOT":0},{"OBJECT_NAME":"KUIPER-00136","OBJECT_ID":"2025-228R","EPOCH":"2026-03-02T14:49:51.614400","MEAN_MOTION":14.79837436,"ECCENTRICITY":0.0001385,"INCLINATION":51.9013,"RA_OF_ASC_NODE":19.4125,"ARG_OF_PERICENTER":94.5926,"MEAN_ANOMALY":265.5195,"EPHEMERIS_TYPE":0,"CLASSIFICATION_TYPE":"U","NORAD_CAT_ID":65962,"ELEMENT_SET_NO":999,"REV_AT_EPOCH":2235,"BSTAR":0.00088116,"MEAN_MOTION_DOT":6.487e-5,"MEAN_MOTION_DDOT":0},{"OBJECT_NAME":"KUIPER-00137","OBJECT_ID":"2025-228S","EPOCH":"2026-03-01T03:24:47.850336","MEAN_MOTION":14.83494519,"ECCENTRICITY":0.00020155,"INCLINATION":51.9033,"RA_OF_ASC_NODE":23.4733,"ARG_OF_PERICENTER":145.013,"MEAN_ANOMALY":215.0966,"EPHEMERIS_TYPE":0,"CLASSIFICATION_TYPE":"U","NORAD_CAT_ID":65963,"ELEMENT_SET_NO":999,"REV_AT_EPOCH":2217,"BSTAR":0.00075902351,"MEAN_MOTION_DOT":6.08e-5,"MEAN_MOTION_DDOT":0},{"OBJECT_NAME":"KUIPER-00138","OBJECT_ID":"2025-228T","EPOCH":"2026-03-02T20:38:13.168896","MEAN_MOTION":14.79941506,"ECCENTRICITY":9.881e-5,"INCLINATION":51.8996,"RA_OF_ASC_NODE":13.2937,"ARG_OF_PERICENTER":76.0156,"MEAN_ANOMALY":284.0916,"EPHEMERIS_TYPE":0,"CLASSIFICATION_TYPE":"U","NORAD_CAT_ID":65964,"ELEMENT_SET_NO":999,"REV_AT_EPOCH":2246,"BSTAR":-1.2346519e-5,"MEAN_MOTION_DOT":-3.15e-6,"MEAN_MOTION_DDOT":0},{"OBJECT_NAME":"KUIPER-00140","OBJECT_ID":"2025-228U","EPOCH":"2026-03-02T14:05:21.782688","MEAN_MOTION":14.79929692,"ECCENTRICITY":9.55e-5,"INCLINATION":51.9004,"RA_OF_ASC_NODE":17.0819,"ARG_OF_PERICENTER":86.2982,"MEAN_ANOMALY":273.8089,"EPHEMERIS_TYPE":0,"CLASSIFICATION_TYPE":"U","NORAD_CAT_ID":65965,"ELEMENT_SET_NO":999,"REV_AT_EPOCH":2238,"BSTAR":0.00085782,"MEAN_MOTION_DOT":6.324e-5,"MEAN_MOTION_DDOT":0},{"OBJECT_NAME":"KUIPER-00141","OBJECT_ID":"2025-228V","EPOCH":"2026-03-02T22:19:40.823040","MEAN_MOTION":14.79776783,"ECCENTRICITY":6.814e-5,"INCLINATION":51.9054,"RA_OF_ASC_NODE":10.5743,"ARG_OF_PERICENTER":84.9242,"MEAN_ANOMALY":275.1798,"EPHEMERIS_TYPE":0,"CLASSIFICATION_TYPE":"U","NORAD_CAT_ID":65966,"ELEMENT_SET_NO":999,"REV_AT_EPOCH":2250,"BSTAR":-0.0034405113,"MEAN_MOTION_DOT":-0.0002625,"MEAN_MOTION_DDOT":0},{"OBJECT_NAME":"KUIPER-00146","OBJECT_ID":"2025-228W","EPOCH":"2026-03-02T14:08:16.941408","MEAN_MOTION":14.76445447,"ECCENTRICITY":0.0001161,"INCLINATION":51.9033,"RA_OF_ASC_NODE":14.237,"ARG_OF_PERICENTER":102.8538,"MEAN_ANOMALY":257.2552,"EPHEMERIS_TYPE":0,"CLASSIFICATION_TYPE":"U","NORAD_CAT_ID":65967,"ELEMENT_SET_NO":999,"REV_AT_EPOCH":2242,"BSTAR":0.00059078,"MEAN_MOTION_DOT":3.935e-5,"MEAN_MOTION_DDOT":0},{"OBJECT_NAME":"KUIPER-00149","OBJECT_ID":"2025-228X","EPOCH":"2026-03-02T06:10:51.818016","MEAN_MOTION":14.79921479,"ECCENTRICITY":0.00016064,"INCLINATION":51.902,"RA_OF_ASC_NODE":10.9664,"ARG_OF_PERICENTER":61.5296,"MEAN_ANOMALY":298.5828,"EPHEMERIS_TYPE":0,"CLASSIFICATION_TYPE":"U","NORAD_CAT_ID":65968,"ELEMENT_SET_NO":999,"REV_AT_EPOCH":2244,"BSTAR":0.0008959085,"MEAN_MOTION_DOT":6.613e-5,"MEAN_MOTION_DDOT":0},{"OBJECT_NAME":"KUIPER-00154","OBJECT_ID":"2025-228Y","EPOCH":"2026-03-02T22:00:01.999584","MEAN_MOTION":14.79951196,"ECCENTRICITY":7.371e-5,"INCLINATION":51.901,"RA_OF_ASC_NODE":5.5567,"ARG_OF_PERICENTER":114.334,"MEAN_ANOMALY":325.5877,"EPHEMERIS_TYPE":0,"CLASSIFICATION_TYPE":"U","NORAD_CAT_ID":65969,"ELEMENT_SET_NO":999,"REV_AT_EPOCH":501,"BSTAR":-0.0013720056,"MEAN_MOTION_DOT":-0.00010668,"MEAN_MOTION_DDOT":0}]
