KUIPER-00124            
1 65953U 25228G   26061.61008426  .00003428  00000+0  47830-3 0  9990
2 65953  51.9004  26.8864 0000812 101.1266 258.9788 14.79948587 22251
KUIPER-00125            
1 65954U 25228H   26061.55872672  .00006506  00000+0  88217-3 0  9990
2 65954  51.9016  12.1366 0000985 109.0192 251.0877 14.79902872 22458
KUIPER-00126            
1 65955U 25228J   26061.63846421  .00000756  00000+0  12813-3 0  9993
2 65955  51.8977  31.7810 0001069 105.9292 254.1788 14.79935391 22182
KUIPER-00127            
1 65956U 25228K   26061.91834399  .00003863  00000+0  58185-3 0  9990
2 65956  51.9010  21.8033 0001432 169.7928 190.3062 14.76344499 22352
KUIPER-00128            
1 65957U 25228L   26061.61247681  .00006322  00000+0  85966-3 0  9990
2 65957  51.9016  24.4092 0000804  97.8207 262.2847 14.79826438 22289
KUIPER-00129            
1 65958U 25228M   26061.58441280  .00003767  00000+0  52271-3 0  9991
2 65958  51.9004  19.5210 0001025  83.6115 276.4964 14.79942142 22357
KUIPER-00130            
1 65959U 25228N   26061.61576883  .00006349  00000+0  86025-3 0  9997
2 65959  51.9037  21.8907 0001180  90.3045 269.8052 14.79972952 12616
KUIPER-00134            
1 65960U 25228P   26061.96068431  .00047192  00000+0  12316-2 0  9994
2 65960  51.8771 352.9683 0004592 297.0536  62.9982 15.38337733 22750
KUIPER-00135            
1 65961U 25228Q   26061.31158762  .00006591  00000+0  89229-3 0  9997
2 65961  51.9026  23.2955 0001008  66.9891 293.1177 14.79952272 22277
KUIPER-00136            
1 65962U 25228R   26061.61795850  .00006487  00000+0  88116-3 0  9994
2 65962  51.9013  19.4125 0001385  94.5926 265.5195 14.79837436 22350
KUIPER-00137            
1 65963U 25228S   26060.14222049  .00006080  00000+0  75902-3 0  9995
2 65963  51.9033  23.4733 0002015 145.0130 215.0966 14.83494519 22175
KUIPER-00138            
1 65964U 25228T   26061.85987464 -.00000315  00000+0 -12347-4 0  9996
2 65964  51.8996  13.2937 0000988  76.0156 284.0916 14.79941506 22465
KUIPER-00140            
1 65965U 25228U   26061.58705767  .00006324  00000+0  85782-3 0  9997
2 65965  51.9004  17.0819 0000955  86.2982 273.8089 14.79929692 22382
KUIPER-00141            
1 65966U 25228V   26061.93033360 -.00026250  00000+0 -34405-2 0  9997
2 65966  51.9054  10.5743 0000681  84.9242 275.1798 14.79776783 22509
KUIPER-00146            
1 65967U 25228W   26061.58908497  .00003935  00000+0  59078-3 0  9998
2 65967  51.9033  14.2370 0001161 102.8538 257.2552 14.76445447 22423
KUIPER-00149            
1 65968U 25228X   26061.25754419  .00006613  00000+0  89591-3 0  9995
2 65968  51.9020  10.9664 0001606  61.5296 298.5828 14.79921479 22448
KUIPER-00154            
1 65969U 25228Y   26061.91668981 -.00010668  00000+0 -13720-2 0  9994
2 65969  51.9010   5.5567 0000737 114.3340 325.5877 14.79951196  5019
